CTC2_L_00575001-01
1 67680U 26913JG  26037.47798611  .00000000  00000+0  00000-0 0  9998
2 67680  63.4000   0.0000 0000000   0.0000   0.0000  2.00928998    10
CTC2_L_00575001-02
1 67681U 22240NL  26037.47798611  .00000000  00000+0  00000-0 0  9998
2 67681  63.4000   0.0000 0000000   0.0000 180.0000  2.00928998    10
CTC2_L_00575002-01
1 67682U 22975UD  26037.47798611  .00000000  00000+0  00000-0 0  9994
2 67682  63.4000 180.0000 0000000   0.0000   0.0000  2.00928998    11
CTC2_L_00575002-02
1 67683U 24368ZW  26037.47798611  .00000000  00000+0  00000-0 0  9993
2 67683  63.4000 180.0000 0000000   0.0000 180.0000  2.00928998    11
